NORAD_CAT_ID,OBJECT_NAME,OBJECT_TYPE,EPOCH,MEAN_MOTION,ECCENTRICITY,INCLINATION,RA_OF_ASC_NODE,ARG_OF_PERICENTER,MEAN_ANOMALY,BSTAR,MEAN_MOTION_DOT,MEAN_MOTION_DDOT,TLE_LINE0,TLE_LINE1,TLE_LINE2,SEMIMAJOR_AXIS,PERIOD,APOGEE,PERIGEE,DECAYED
53276.0,STARLINK-4174,PAYLOAD,2024-01-25 13:14:34,15.08840826,0.0001711,53.2173,59.3629,106.7447,253.3733,0.00027835,4.145e-05,0.0,0 STARLINK-4174,1 53276U 22086AL  24025.55178770  .00004145  00000-0  27835-3 0  9996,2 53276  53.2173  59.3629 0001711 106.7447 253.3733 15.08840826 84324,6917.878,95.438,540.927,538.559,0.0
53276.0,STARLINK-4174,PAYLOAD,2024-01-26 08:19:12,15.08843898,0.000169,53.2176,55.7971,96.301,263.8175,8.2172e-05,1.02e-05,0.0,0 STARLINK-4174,1 53276U 22086AL  24026.34667036  .00001020  00000-0  82172-4 0  9997,2 53276  53.2176  55.7971 0001690  96.3010 263.8175 15.08843898 84275,6917.868,95.437,540.903,538.564,0.0
53276.0,STARLINK-4174,PAYLOAD,2024-01-27 11:20:45,15.0883982,0.0001727,53.2178,50.7328,105.1309,254.9874,-4.0844e-06,-3.53e-06,0.0,0 STARLINK-4174,1 53276U 22086AL  24027.47275400 -.00000353  00000-0 -40844-5 0  9993,2 53276  53.2178  50.7328 0001727 105.1309 254.9874 15.08839820 84445,6917.881,95.438,540.941,538.551,0.0
53276.0,STARLINK-4174,PAYLOAD,2024-01-28 06:25:23,15.08838122,0.0001715,53.2176,47.1646,96.2168,263.9019,4.0869e-05,3.62e-06,0.0,0 STARLINK-4174,1 53276U 22086AL  24028.26763433  .00000362  00000-0  40869-4 0  9993,2 53276  53.2176  47.1646 0001715  96.2168 263.9019 15.08838122 84733,6917.886,95.438,540.938,538.565,0.0
53276.0,STARLINK-4174,PAYLOAD,2024-01-29 01:30:01,15.08836347,0.0001639,53.2177,43.5965,84.8505,275.2674,7.6195e-05,9.25e-06,0.0,0 STARLINK-4174,1 53276U 22086AL  24029.06251615  .00000925  00000-0  76195-4 0  9992,2 53276  53.2177  43.5965 0001639  84.8505 275.2674 15.08836347 84685,6917.892,95.438,540.89,538.623,0.0
53276.0,STARLINK-4174,PAYLOAD,2024-01-29 07:51:33,15.08841808,0.0001657,53.218,42.4073,89.9328,270.1854,0.0001161,1.56e-05,0.0,0 STARLINK-4174,1 53276U 22086AL  24029.32747199  .00001560  00000-0  11610-3 0  9994,2 53276  53.2180  42.4073 0001657  89.9328 270.1854 15.08841808 84723,6917.875,95.437,540.886,538.594,0.0
53276.0,STARLINK-4174,PAYLOAD,2024-01-30 06:06:57,15.08854146,0.0002043,53.2192,38.2495,106.4887,253.6329,-0.0001997,-3.466e-05,0.0,0 STARLINK-4174,1 53276U 22086AL  24030.25483543 -.00003466  00000-0 -19970-3 0  9994,2 53276  53.2192  38.2495 0002043 106.4887 253.6329 15.08854146 85039,6917.837,95.437,541.115,538.289,0.0
53276.0,STARLINK-4174,PAYLOAD,2024-01-31 04:22:22,15.08839077,0.0001871,53.2188,34.0828,110.9867,249.1326,1.1626e-06,-2.7e-06,0.0,0 STARLINK-4174,1 53276U 22086AL  24031.18219957 -.00000270  00000-0  11626-5 0  9994,2 53276  53.2188  34.0828 0001871 110.9867 249.1326 15.08839077 85004,6917.883,95.438,541.043,538.454,0.0
53276.0,STARLINK-4174,PAYLOAD,2024-01-31 07:33:08,15.08845707,0.0001937,53.2182,33.4878,104.4538,255.6669,-4.0046e-05,-9.26e-06,0.0,0 STARLINK-4174,1 53276U 22086AL  24031.31467724 -.00000926  00000-0 -40046-4 0  9992,2 53276  53.2182  33.4878 0001937 104.4538 255.6669 15.08845707 85191,6917.863,95.437,541.068,538.388,0.0
53276.0,STARLINK-4174,PAYLOAD,2024-02-01 04:13:08,15.08846452,0.0001554,53.2177,29.6214,101.7992,258.3175,0.0001076,1.425e-05,0.0,0 STARLINK-4174,1 53276U 22086AL  24032.17579035  .00001425  00000-0  10760-3 0  9998,2 53276  53.2177  29.6214 0001554 101.7992 258.3175 15.08846452 85151,6917.861,95.437,540.801,538.651,0.0
53276.0,STARLINK-4174,PAYLOAD,2024-02-01 08:59:16,15.0885567,0.0001558,53.2175,28.729,96.4467,263.6703,0.0001799,2.577e-05,0.0,0 STARLINK-4174,1 53276U 22086AL  24032.37450189  .00002577  00000-0  17990-3 0  9999,2 53276  53.2175  28.7290 0001558  96.4467 263.6703 15.08855670 85185,6917.832,95.437,540.775,538.62,0.0
53276.0,STARLINK-4174,PAYLOAD,2024-02-02 04:03:55,15.0884113,0.000189,53.2181,25.1592,114.2622,245.8568,4.1164e-06,-2.23e-06,0.0,0 STARLINK-4174,1 53276U 22086AL  24033.16939570 -.00000223  00000-0  41164-5 0  9992,2 53276  53.2181  25.1592 0001890 114.2622 245.8568 15.08841130 85300,6917.877,95.437,541.049,538.434,0.0
53276.0,STARLINK-4174,PAYLOAD,2024-02-02 08:50:05,15.08839404,0.0001651,53.2186,24.2688,92.2061,267.912,1.8711e-05,1e-07,0.0,0 STARLINK-4174,1 53276U 22086AL  24033.36811813  .00000010  00000-0  18711-4 0  9997,2 53276  53.2186  24.2688 0001651  92.2061 267.9120 15.08839404 85500,6917.882,95.438,540.889,538.605,0.0
53276.0,STARLINK-4174,PAYLOAD,2024-02-03 05:30:05,15.08848142,0.0001559,53.2189,20.4034,104.6185,255.498,-9.4196e-05,-1.787e-05,0.0,0 STARLINK-4174,1 53276U 22086AL  24034.22923573 -.00001787  00000-0 -94196-4 0  9995,2 53276  53.2189  20.4034 0001559 104.6185 255.4980 15.08848142 85468,6917.856,95.437,540.799,538.642,0.0
53276.0,STARLINK-4174,PAYLOAD,2024-02-04 03:45:30,15.08837389,0.0001662,53.219,16.2402,103.9556,256.1621,6.5463e-05,7.54e-06,0.0,0 STARLINK-4174,1 53276U 22086AL  24035.15659829  .00000754  00000-0  65463-4 0  9994,2 53276  53.2190  16.2402 0001662 103.9556 256.1621 15.08837389 85608,6917.888,95.438,540.903,538.604,0.0
53276.0,STARLINK-4174,PAYLOAD,2024-02-04 08:31:39,15.08841649,0.0001544,53.2181,15.3472,101.1302,258.9864,9.7341e-05,1.262e-05,0.0,0 STARLINK-4174,1 53276U 22086AL  24035.35531559  .00001262  00000-0  97341-4 0  9990,2 53276  53.2181  15.3472 0001544 101.1302 258.9864 15.08841649 85808,6917.875,95.437,540.808,538.672,0.0
53276.0,STARLINK-4174,PAYLOAD,2024-02-05 05:11:40,15.08840553,0.0001347,53.2173,11.4844,92.9768,267.1379,6.0712e-05,6.78e-06,0.0,0 STARLINK-4174,1 53276U 22086AL  24036.21643974  .00000678  00000-0  60712-4 0  9993,2 53276  53.2173  11.4844 0001347  92.9768 267.1379 15.08840553 85764,6917.879,95.438,540.676,538.812,0.0
53276.0,STARLINK-4174,PAYLOAD,2024-02-06 03:27:06,15.08820543,0.0001336,53.2173,7.3175,97.3445,262.7699,-8.8616e-05,-1.697e-05,0.0,0 STARLINK-4174,1 53276U 22086AL  24037.14382535 -.00001697  00000-0 -88616-4 0  9996,2 53276  53.2173   7.3175 0001336  97.3445 262.7699 15.08820543 85903,6917.94,95.439,540.729,538.881,0.0
53276.0,STARLINK-4174,PAYLOAD,2024-02-06 06:37:52,15.08828576,0.0001356,53.2188,6.7255,85.4994,274.6153,-7.1364e-05,-1.423e-05,0.0,0 STARLINK-4174,1 53276U 22086AL  24037.27630209 -.00001423  00000-0 -71364-4 0  9993,2 53276  53.2188   6.7255 0001356  85.4994 274.6153 15.08828576 85923,6917.915,95.438,540.718,538.842,0.0
53276.0,STARLINK-4174,PAYLOAD,2024-02-07 03:17:51,15.08847473,0.0001389,53.218,2.8602,79.5982,280.5167,0.00012129,1.643e-05,0.0,0 STARLINK-4174,1 53276U 22086AL  24038.13740640  .00001643  00000-0  12129-3 0  9995,2 53276  53.2180   2.8602 0001389  79.5982 280.5167 15.08847473 86058,6917.858,95.437,540.683,538.762,0.0
53276.0,STARLINK-4174,PAYLOAD,2024-02-07 06:28:37,15.08860276,0.0001348,53.2185,2.2684,107.8024,252.3115,0.00025665,3.801e-05,0.0,0 STARLINK-4174,1 53276U 22086AL  24038.26987401  .00003801  00000-0  25665-3 0  9994,2 53276  53.2185   2.2684 0001348 107.8024 252.3115 15.08860276 86072,6917.818,95.436,540.616,538.751,0.0
53276.0,STARLINK-4174,PAYLOAD,2024-02-07 14:25:33,15.08851045,0.0001879,53.2191,0.7794,80.7994,279.321,0.0001107,1.475e-05,0.0,0 STARLINK-4174,1 53276U 22086AL  24038.60108417  .00001475  00000-0  11070-3 0  9994,2 53276  53.2191   0.7794 0001879  80.7994 279.3210 15.08851045 86291,6917.847,95.437,541.011,538.412,0.0
53276.0,STARLINK-4174,PAYLOAD,2024-02-08 03:08:40,15.08833657,0.0001684,53.2199,358.4046,90.2063,269.9122,0.00010404,1.368e-05,0.0,0 STARLINK-4174,1 53276U 22086AL  24039.13102044  .00001368  00000-0  10404-3 0  9994,2 53276  53.2199 358.4046 0001684  90.2063 269.9122 15.08833657 86206,6917.9,95.438,540.93,538.6,0.0
53276.0,STARLINK-4174,PAYLOAD,2024-02-08 06:19:25,15.08849826,0.0001089,53.2175,357.8037,101.1532,258.9583,0.00016792,2.386e-05,0.0,0 STARLINK-4174,1 53276U 22086AL  24039.26348648  .00002386  00000-0  16792-3 0  9997,2 53276  53.2175 357.8037 0001089 101.1532 258.9583 15.08849826 86221,6917.85,95.437,540.469,538.962,0.0
53276.0,STARLINK-4174,PAYLOAD,2024-02-09 06:10:11,15.08864685,0.000156,53.2195,353.3384,87.7877,272.3293,2.1547e-05,5.5e-07,0.0,0 STARLINK-4174,1 53276U 22086AL  24040.25707805  .00000055  00000-0  21547-4 0  9998,2 53276  53.2195 353.3384 0001560  87.7877 272.3293 15.08864685 86547,6917.805,95.436,540.749,538.591,0.0
53276.0,STARLINK-4174,PAYLOAD,2024-02-09 20:28:41,15.08832629,0.0001616,53.2191,350.6685,88.6108,271.507,4.0338e-05,3.54e-06,0.0,0 STARLINK-4174,1 53276U 22086AL  24040.85325696  .00000354  00000-0  40338-4 0  9999,2 53276  53.2191 350.6685 0001616  88.6108 271.5070 15.08832629 86464,6917.903,95.438,540.886,538.65,0.0
53276.0,STARLINK-4174,PAYLOAD,2024-02-10 06:00:59,15.08845837,0.0001657,53.2194,348.8819,108.2999,251.8173,4.4657e-05,4.23e-06,0.0,0 STARLINK-4174,1 53276U 22086AL  24041.25068847  .00000423  00000-0  44657-4 0  9991,2 53276  53.2194 348.8819 0001657 108.2999 251.8173 15.08845837 86524,6917.863,95.437,540.874,538.581,0.0
53276.0,STARLINK-4174,PAYLOAD,2024-02-11 05:51:45,15.08857026,0.0001592,53.2193,344.42,100.5815,259.5357,6.1286e-05,6.88e-06,0.0,0 STARLINK-4174,1 53276U 22086AL  24042.24428049  .00000688  00000-0  61286-4 0  9995,2 53276  53.2193 344.4200 0001592 100.5815 259.5357 15.08857026 86677,6917.828,95.436,540.795,538.592,0.0
53276.0,STARLINK-4174,PAYLOAD,2024-02-12 02:31:46,15.08849935,0.0001614,53.2186,340.5497,118.0951,242.0205,0.00010537,1.39e-05,0.0,0 STARLINK-4174,1 53276U 22086AL  24043.10540459  .00001390  00000-0  10537-3 0  9994,2 53276  53.2186 340.5497 0001614 118.0951 242.0205 15.08849935 86808,6917.85,95.437,540.832,538.598,0.0
53276.0,STARLINK-4174,PAYLOAD,2024-02-12 20:01:01,15.08836961,0.0001745,53.2182,337.2789,128.4211,231.6938,-4.1527e-05,-9.49e-06,0.0,0 STARLINK-4174,1 53276U 22086AL  24043.83405036 -.00000949  00000-0 -41527-4 0  9990,2 53276  53.2182 337.2789 0001745 128.4211 231.6938 15.08836961 86914,6917.89,95.438,540.962,538.548,0.0
